[Satellite]
VERSION=1.1
NAME=SL-14 R/B
NICKNAME=SL-14 R/B
TLE1=1 17567U 87024B   19317.47642663  .00000056  00000-0  38755-5 0  9990
TLE2=2 17567  82.5280  96.0131 0018334 329.3561  30.6582 14.83746567766847
STATUS=0
